{"type": "FeatureCollection", "source": "Sentinel-2 L2A × IPCC Tier 2", "method": "森林ピクセル NDVI > 0.5 × 9.62 t-CO2/ha/yr", "years": [2015, 2016, 2017, 2018, 2019, 2020, 2021, 2022, 2023, 2024, 2025], "features": [{"type": "Feature", "geometry": {"type": "MultiPolygon", "coordinates": [[[[135.036697387695, 35.537334442138686], [134.92649841308602, 35.512531280517585], [134.85420227050798, 35.588134765624986], [134.867095947266, 35.658065795898445], [134.93530273437503, 35.650531768798835], [135.08569335937503, 35.73979949951173], [135.223007202148, 35.779197692871115], [135.30799865722696, 35.69440078735352], [135.192596435547, 35.57113265991207], [135.193099975586, 35.53826522827148], [135.25469970703102, 35.59886550903323], [135.27389526367202, 35.560867309570305], [135.24420166015602, 35.535865783691385], [135.33030700683597, 35.51699829101562], [135.31629943847696, 35.451198577880945], [135.34680175781304, 35.493999481201236], [135.397506713867, 35.478801727294865], [135.396301269531, 35.51520156860352], [135.34449768066398, 35.50413131713867], [135.34230041503898, 35.55179977416991], [135.46189880371102, 35.60346603393551], [135.452102661133, 35.567466735839766], [135.48649597167994, 35.557998657226634], [135.44900512695304, 35.52353286743159], [135.47480773925804, 35.50486755371091], [135.459106445313, 35.46753311157229], [135.52529907226597, 35.420665740966776], [135.52850341796898, 35.379734039306605], [135.76840209960903, 35.35606765747074], [135.83129882812497, 35.27613449096682], [135.85810852050804, 35.28913497924801], [135.82910156249994, 35.22073364257807], [135.85580444335898, 35.159465789794915], [135.81500244140597, 35.04613494873052], [135.82679748535196, 34.99113464355467], [135.87820434570298, 34.94746780395507], [135.86639404296898, 34.892265319824226], [135.897994995117, 34.871200561523366], [135.94050598144503, 34.89319992065429], [135.94569396972702, 34.85173416137696], [136.00500488281304, 34.84273529052732], [136.05520629882798, 34.738399505615206], [136.02850341796895, 34.7061996459961], [135.925399780273, 34.75753402709964], [135.889999389648, 34.70866775512704], [135.75509643554702, 34.727466583252045], [135.744705200195, 34.804332733154304], [135.67489624023398, 34.898666381835866], [135.59989929199202, 34.92800140380858], [135.61289978027304, 34.97133255004884], [135.573303222656, 34.971668243408175], [135.556793212891, 34.938068389892614], [135.580703735352, 34.92359924316412], [135.541793823242, 34.91533279418954], [135.48100280761696, 34.949466705322344], [135.48739624023398, 34.99193191528322], [135.382095336914, 35.01013565063477], [135.389404296875, 35.12879943847659], [135.28219604492193, 35.14493179321293], [135.273803710938, 35.177066802978466], [135.18690490722696, 35.17179870605471], [135.15829467773398, 35.25993347167972], [135.06750488281298, 35.23720169067383], [134.92559814453102, 35.311199188232415], [134.93380737304702, 35.40739822387701], [134.98950195312497, 35.38626861572266], [135.048294067383, 35.40739822387701], [135.036697387695, 35.537334442138686]]], [[[135.42730712890602, 35.68246841430664], [135.421401977539, 35.679733276367216], [135.42430114746102, 35.68819808959962], [135.42730712890602, 35.68246841430664]]], [[[135.48089599609403, 35.594333648681626], [135.47489929199196, 35.595600128173835], [135.47790527343804, 35.60593414306636], [135.48089599609403, 35.594333648681626]]], [[[135.34719848632798, 35.495933532714844], [135.34040832519497, 35.498600006103516], [135.34739685058597, 35.4971313476563], [135.34719848632798, 35.495933532714844]]]]}, "properties": {"pref_id": 26, "name_ja": "京都府", "pref_area_ha": 459711, "yearly": {}}}, {"type": "Feature", "geometry": {"type": "MultiPolygon", "coordinates": [[[[129.86709594726602, 33.59673309326167], [129.847900390625, 33.59980010986334], [129.86119079589804, 33.61826705932619], [129.86709594726602, 33.59673309326167]]], [[[129.90069580078097, 33.59400177001952], [129.89669799804702, 33.603733062744126], [129.90179443359403, 33.60286712646482], [129.90069580078097, 33.59400177001952]]], [[[129.84469604492202, 33.58580017089842], [129.835098266602, 33.58906555175782], [129.845901489258, 33.59146881103518], [129.84469604492202, 33.58580017089842]]], [[[129.76789855956997, 33.582000732421875], [129.73939514160193, 33.57279968261723], [129.74119567871097, 33.57813262939448], [129.76789855956997, 33.582000732421875]]], [[[129.89199829101602, 33.556133270263736], [129.87289428710903, 33.558067321777344], [129.880401611328, 33.56746673583981], [129.89199829101602, 33.556133270263736]]], [[[129.967102050781, 33.455200195312536], [130.27659606933597, 33.47826766967767], [130.41020202636702, 33.395000457763686], [130.53619384765602, 33.43820190429689], [130.53520202636702, 33.34280014038093], [130.47900390624997, 33.33073425292971], [130.44889831543003, 33.26499938964844], [130.43099975585903, 33.29246520996094], [130.371307373047, 33.24300003051761], [130.338607788086, 33.2032661437988], [130.354904174805, 33.14039993286128], [130.28779602050804, 33.146865844726584], [130.24540710449202, 33.20286560058589], [130.149002075195, 33.112667083740206], [130.12190246581997, 33.12473297119142], [130.11230468749997, 33.101131439208956], [130.21980285644503, 32.959533691406335], [130.08569335937494, 32.97480010986328], [130.008697509766, 33.01900100708012], [129.92149353027298, 33.090400695800795], [129.95449829101597, 33.11660003662109], [129.94250488281304, 33.164333343505895], [129.81799316406298, 33.18346786499024], [129.81340026855497, 33.24206542968754], [129.75880432128903, 33.29026794433593], [129.78990173339798, 33.34033203124999], [129.835998535156, 33.28673171997069], [129.852798461914, 33.292133331298785], [129.827392578125, 33.312400817871094], [129.833892822266, 33.31126785278322], [129.848403930664, 33.32866668701168], [129.827301025391, 33.33726882934568], [129.847396850586, 33.33686828613278], [129.86799621582003, 33.4075317382813], [129.78280639648398, 33.45406723022457], [129.80549621582, 33.48500061035164], [129.835205078125, 33.44359970092771], [129.85789489746102, 33.45380020141599], [129.831405639648, 33.476200103759815], [129.845092773438, 33.55526733398443], [129.87440490722702, 33.516132354736264], [129.89579772949196, 33.549400329589766], [129.95599365234398, 33.52946853637697], [129.93620300293003, 33.47859954833982], [129.967102050781, 33.455200195312536]]], [[[129.97720336914097, 33.53486633300779], [129.96449279785196, 33.538932800293004], [129.97209167480497, 33.54320144653322], [129.97720336914097, 33.53486633300779]]], [[[129.99279785156298, 33.47766876220703], [129.984603881836, 33.47793197631842], [129.98880004882798, 33.480598449707], [129.99279785156298, 33.47766876220703]]], [[[129.85629272460903, 33.40213394165038], [129.855804443359, 33.40486526489263], [129.858001708984, 33.40240097045896], [129.85629272460903, 33.40213394165038]]], [[[129.86009216308602, 33.39946746826172], [129.86140441894503, 33.40166854858399], [129.865600585938, 33.402732849121115], [129.86009216308602, 33.39946746826172]]], [[[129.83859252929702, 33.319133758544886], [129.835098266602, 33.321464538574226], [129.835205078125, 33.32273483276371], [129.83859252929702, 33.319133758544886]]], [[[130.22419738769503, 32.956531524658246], [130.21269226074202, 32.95460128784182], [130.22200012207003, 32.95840072631837], [130.22419738769503, 32.956531524658246]]]]}, "properties": {"pref_id": 41, "name_ja": "佐賀県", "pref_area_ha": 242699, "yearly": {}}}, {"type": "Feature", "geometry": {"type": "MultiPolygon", "coordinates": [[[[131.11039733886696, 33.18313217163091], [131.26280212402304, 32.97620010375983], [131.254898071289, 32.89186477661127], [131.32859802246097, 32.832866668701236], [131.26489257812503, 32.82619857788093], [131.23419189453102, 32.74420166015634], [131.11619567871102, 32.6427345275879], [131.107299804688, 32.583068847656286], [131.05029296875, 32.586532592773416], [131.01710510253898, 32.545467376709], [131.01899719238298, 32.43946838378912], [131.11050415039102, 32.328468322753885], [131.04150390625, 32.25019836425781], [131.108108520508, 32.15993499755864], [131.01269531249997, 32.17380142211913], [130.97239685058597, 32.12113189697271], [130.75810241699202, 32.096664428710945], [130.70129394531298, 32.10573196411134], [130.60400390625003, 32.1868667602539], [130.538604736328, 32.13700103759766], [130.403503417969, 32.119667053222685], [130.359405517578, 32.180332183837926], [130.40159606933602, 32.235332489013686], [130.43940734863304, 32.23666763305656], [130.42739868164102, 32.264064788818395], [130.48899841308597, 32.29613494873053], [130.46409606933597, 32.32626724243161], [130.50540161132798, 32.353801727294865], [130.48899841308597, 32.36579895019533], [130.573196411133, 32.43406677246094], [130.54150390625, 32.49526596069342], [130.57260131835903, 32.50939941406249], [130.538803100586, 32.53319931030269], [130.65950012206997, 32.631332397460895], [130.45899963378898, 32.60666656494139], [130.45930480956997, 32.632999420166016], [130.60749816894497, 32.712932586669936], [130.59010314941403, 32.76380157470699], [130.61349487304696, 32.79246902465822], [130.58340454101602, 32.84153366088873], [130.44329833984403, 32.91446685791019], [130.41319274902304, 33.00286483764651], [130.50529479980497, 33.00320053100593], [130.496795654297, 33.05220031738278], [130.57969665527304, 33.11566543579102], [130.65879821777298, 33.110065460205114], [130.67919921875, 33.17119979858402], [130.98800659179696, 33.0236015319824], [131.02310180664097, 33.087398529052706], [130.97760009765597, 33.14053344726561], [130.99160766601597, 33.18326568603524], [131.11039733886696, 33.18313217163091]]], [[[130.42230224609403, 32.54606628417972], [130.393096923828, 32.586532592773416], [130.44059753418003, 32.625465393066406], [130.45240783691403, 32.554000854492244], [130.42230224609403, 32.54606628417972]]], [[[130.48699951171898, 32.57626724243156], [130.47259521484398, 32.603202819824176], [130.50770568847696, 32.60673522949224], [130.51020812988298, 32.59400177001954], [130.48699951171898, 32.57626724243156]]], [[[130.34220886230497, 32.60420227050781], [130.33459472656298, 32.59966659545903], [130.329696655273, 32.60499954223627], [130.34220886230497, 32.60420227050781]]], [[[130.44889831543003, 32.59400177001954], [130.44819641113304, 32.59693527221678], [130.45100402831997, 32.59733581542969], [130.44889831543003, 32.59400177001954]]], [[[130.47100830078097, 32.593067169189474], [130.47030639648398, 32.59460067749018], [130.47259521484398, 32.5943336486816], [130.47100830078097, 32.593067169189474]]], [[[130.46380615234403, 32.53979873657233], [130.46020507812497, 32.57220077514653], [130.47200012206997, 32.58766555786129], [130.48600769042997, 32.57120132446289], [130.46380615234403, 32.53979873657233]]], [[[130.38720703125, 32.581268310546925], [130.37969970703102, 32.58300018310553], [130.39109802246102, 32.58440017700199], [130.38720703125, 32.581268310546925]]], [[[130.45559692382795, 32.572067260742195], [130.45240783691403, 32.56753540039058], [130.45520019531304, 32.57306671142583], [130.45559692382795, 32.572067260742195]]], [[[130.12179565429696, 32.55039978027342], [130.11270141601597, 32.55266571044918], [130.12179565429696, 32.55179977416988], [130.12179565429696, 32.55039978027342]]], [[[130.353302001953, 32.40480041503908], [130.26080322265597, 32.410400390624986], [130.25169372558594, 32.387535095214766], [130.233596801758, 32.384799957275426], [130.24440002441403, 32.40793228149414], [130.210800170898, 32.430801391601634], [130.203506469727, 32.32553482055664], [130.17199707031298, 32.3102684020996], [130.15780639648398, 32.335731506347734], [130.13890075683597, 32.297332763671896], [130.165298461914, 32.296669006347685], [130.09159851074196, 32.25500106811518], [130.07710266113304, 32.212398529052706], [129.99990844726597, 32.190132141113295], [130.01020812988298, 32.23746871948238], [129.96739196777298, 32.242668151855476], [130.011703491211, 32.29866790771478], [130.031600952148, 32.274398803710916], [130.02780151367202, 32.29880142211911], [130.06030273437503, 32.27746582031249], [130.06990051269503, 32.299533843994084], [129.97650146484398, 32.32966613769534], [130.04570007324202, 32.4886016845703], [130.019393920898, 32.534801483154325], [130.043395996094, 32.5124015808105], [130.184997558594, 32.54759979248051], [130.199493408203, 32.447666168212855], [130.31700134277298, 32.5173988342285], [130.38279724121102, 32.52413558959956], [130.39190673828102, 32.49946594238279], [130.45989990234403, 32.53006744384771], [130.40289306640602, 32.394599914550795], [130.364700317383, 32.388999938964794], [130.35530090332, 32.376800537109425], [130.353302001953, 32.40480041503908]]], [[[130.389099121094, 32.542934417724574], [130.39059448242202, 32.54693222045903], [130.39469909668, 32.54486846923827], [130.389099121094, 32.542934417724574]]], [[[130.42770385742202, 32.54313278198239], [130.411499023438, 32.54320144653324], [130.40460205078102, 32.5443992614746], [130.42770385742202, 32.54313278198239]]], [[[130.196807861328, 32.540668487548814], [130.195297241211, 32.54373550415039], [130.197204589844, 32.54366683959963], [130.196807861328, 32.540668487548814]]], [[[130.40480041503903, 32.54320144653324], [130.39930725097702, 32.53766632080081], [130.39360046386702, 32.53953552246093], [130.40480041503903, 32.54320144653324]]], [[[130.43940734863304, 32.537265777587905], [130.43510437011696, 32.531734466552656], [130.43789672851602, 32.538135528564474], [130.43940734863304, 32.537265777587905]]], [[[130.43580627441403, 32.52920150756841], [130.43119812011696, 32.52886581420899], [130.42990112304693, 32.53200149536132], [130.43580627441403, 32.52920150756841]]], [[[130.373199462891, 32.5273323059082], [130.37179565429702, 32.52819824218751], [130.372802734375, 32.53253555297847], [130.373199462891, 32.5273323059082]]], [[[130.43069458007804, 32.52619934082032], [130.42219543456994, 32.52306747436517], [130.42759704589804, 32.52886581420899], [130.43069458007804, 32.52619934082032]]], [[[130.496795654297, 32.484001159668026], [130.496795654297, 32.48926544189452], [130.50160217285196, 32.48546600341797], [130.496795654297, 32.484001159668026]]], [[[130.231399536133, 32.406265258789105], [130.22799682617202, 32.403800964355526], [130.22999572753903, 32.40713500976559], [130.231399536133, 32.406265258789105]]], [[[130.23280334472702, 32.40113449096677], [130.229507446289, 32.3997993469238], [130.23060607910202, 32.402599334716804], [130.23280334472702, 32.40113449096677]]], [[[130.43580627441403, 32.381732940673764], [130.40719604492202, 32.39146804809573], [130.41340637207003, 32.39906692504883], [130.43580627441403, 32.381732940673764]]], [[[130.32659912109398, 32.38579940795898], [130.32560729980497, 32.392333984375036], [130.329895019531, 32.394866943359375], [130.32659912109398, 32.38579940795898]]], [[[130.402297973633, 32.38906860351564], [130.39759826660202, 32.38726806640628], [130.399200439453, 32.39373397827149], [130.402297973633, 32.38906860351564]]], [[[130.33630371093798, 32.38386535644528], [130.339996337891, 32.38999938964843], [130.343399047852, 32.392333984375036], [130.33630371093798, 32.38386535644528]]], [[[130.32650756835898, 32.378601074218786], [130.31790161132798, 32.376800537109425], [130.323303222656, 32.38166809082028], [130.32650756835898, 32.378601074218786]]], [[[130.23370361328102, 32.36619949340824], [130.22889709472702, 32.376934051513665], [130.234405517578, 32.38040161132806], [130.23370361328102, 32.36619949340824]]], [[[130.30470275878898, 32.366802215576236], [130.30830383300795, 32.3738021850586], [130.309295654297, 32.371135711669936], [130.30470275878898, 32.366802215576236]]], [[[130.35429382324202, 32.3652000427246], [130.340896606445, 32.369266510009815], [130.34890747070298, 32.37306594848627], [130.35429382324202, 32.3652000427246]]], [[[130.33680725097696, 32.34673309326174], [130.30270385742196, 32.36306762695308], [130.340194702148, 32.35573196411129], [130.33680725097696, 32.34673309326174]]], [[[130.36030578613298, 32.35406875610353], [130.356704711914, 32.35219955444341], [130.358001708984, 32.356132507324205], [130.36030578613298, 32.35406875610353]]], [[[130.30169677734398, 32.30386734008787], [130.34590148925798, 32.349933624267564], [130.373397827148, 32.34826660156253], [130.344100952148, 32.31273269653318], [130.30169677734398, 32.30386734008787]]], [[[130.28739929199196, 32.33653259277337], [130.28399658203097, 32.33653259277337], [130.28919982910196, 32.34080123901368], [130.28739929199196, 32.33653259277337]]], [[[130.212838878661, 32.33745588807217], [130.21044507161304, 32.337307599140104], [130.21084757014398, 32.338006675534565], [130.212838878661, 32.33745588807217]]], [[[130.30290222167997, 32.327335357666], [130.29379272460898, 32.332935333252], [130.30250549316398, 32.33586883544916], [130.30290222167997, 32.327335357666]]], [[[130.14959716796898, 32.269733428955064], [130.13670349121097, 32.27519989013673], [130.14610290527298, 32.27493286132807], [130.14959716796898, 32.269733428955064]]], [[[129.97259521484398, 32.20326614379882], [129.971893310547, 32.207332611084034], [129.974899291992, 32.2067337036133], [129.97259521484398, 32.20326614379882]]], [[[130.07809448242196, 32.195468902587905], [130.07730102539102, 32.20119857788088], [130.08090209960903, 32.19833374023439], [130.07809448242196, 32.195468902587905]]], [[[130.362396240234, 32.19440078735351], [130.36349487304702, 32.19973373413094], [130.36799621582003, 32.20000076293951], [130.362396240234, 32.19440078735351]]], [[[130.046096801758, 32.156665802001974], [130.03129577636702, 32.174800872802685], [130.01640319824202, 32.162467956542976], [130.018905639648, 32.186000823974595], [130.03819274902304, 32.1836013793945], [130.046096801758, 32.156665802001974]]], [[[129.96919250488298, 32.184200286865234], [129.96479797363298, 32.18093490600592], [129.963195800781, 32.18659973144533], [129.96919250488298, 32.184200286865234]]], [[[130.01469421386702, 32.1829986572266], [130.013397216797, 32.186267852783175], [130.014907836914, 32.186267852783175], [130.01469421386702, 32.1829986572266]]], [[[130.04769897460903, 32.17406463623053], [130.04139709472702, 32.17853164672847], [130.04530334472702, 32.17760086059568], [130.04769897460903, 32.17406463623053]]], [[[130.052108764648, 32.16199874877931], [130.05110168457003, 32.16946792602543], [130.05549621582003, 32.162467956542976], [130.052108764648, 32.16199874877931]]], [[[130.04220581054702, 32.154468536376974], [130.04049682617202, 32.15386581420898], [130.04139709472702, 32.15813446044919], [130.04220581054702, 32.154468536376974]]], [[[129.97309875488298, 32.14526748657233], [129.97109985351597, 32.144599914550845], [129.97250366210898, 32.14906692504879], [129.97309875488298, 32.14526748657233]]]]}, "properties": {"pref_id": 43, "name_ja": "熊本県", "pref_area_ha": 737573, "yearly": {}}}, {"type": "Feature", "geometry": {"type": "MultiPolygon", "coordinates": [[[[134.171493530273, 34.528934478759794], [134.364807128906, 34.561065673828054], [134.337799072266, 34.43420028686523], [134.318908691406, 34.45800018310551], [134.28379821777298, 34.442001342773416], [134.27769470214798, 34.4468002319336], [134.31489562988298, 34.45899963378906], [134.29670715331997, 34.47980117797852], [134.23199462890594, 34.414531707763736], [134.22770690918, 34.48046875], [134.14129638671898, 34.469799041747976], [134.18029785156298, 34.48733139038087], [134.15600585937497, 34.5047340393066], [134.171493530273, 34.528934478759794]]], [[[134.15950012207, 34.527599334716825], [134.159194946289, 34.5306663513184], [134.16050720214798, 34.53060150146482], [134.15950012207, 34.527599334716825]]], [[[134.162200927734, 34.517734527587876], [134.160400390625, 34.521800994873004], [134.163803100586, 34.52213287353524], [134.162200927734, 34.517734527587876]]], [[[134.149398803711, 34.51686859130857], [134.144500732422, 34.519733428955064], [134.152404785156, 34.519401550293], [134.149398803711, 34.51686859130857]]], [[[133.974899291992, 34.5060653686523], [133.969299316406, 34.510265350341754], [133.97219848632798, 34.51246643066412], [133.974899291992, 34.5060653686523]]], [[[134.011505126953, 34.4869995117188], [134.023406982422, 34.50686645507812], [134.02049255371102, 34.478801727294886], [134.011505126953, 34.4869995117188]]], [[[133.97869873046898, 34.50133132934569], [133.973602294922, 34.50159835815427], [133.97790527343798, 34.503864288330114], [133.97869873046898, 34.50133132934569]]], [[[134.07949829101602, 34.45980072021479], [134.038101196289, 34.478267669677734], [134.035903930664, 34.48260116577153], [134.10229492187497, 34.491668701171925], [134.07949829101602, 34.45980072021479]]], [[[133.984100341797, 34.49373245239259], [133.97740173339798, 34.49160003662108], [133.97839355468798, 34.49520111083981], [133.984100341797, 34.49373245239259]]], [[[133.993698120117, 34.484333038330135], [133.989501953125, 34.48300170898443], [133.992095947266, 34.48686599731447], [133.993698120117, 34.484333038330135]]], [[[134.12179565429696, 34.474468231201186], [134.10910034179696, 34.47840118408198], [134.12739562988298, 34.48186874389646], [134.12179565429696, 34.474468231201186]]], [[[133.97230529785196, 34.47399902343752], [133.97160339355497, 34.48046493530274], [133.97599792480497, 34.47673416137704], [133.97230529785196, 34.47399902343752]]], [[[133.991302490234, 34.44313430786129], [133.973602294922, 34.453067779540994], [133.96789550781298, 34.47846603393547], [133.970993041992, 34.47333145141604], [133.980804443359, 34.476932525634766], [134.001800537109, 34.45126724243163], [134.012008666992, 34.45339965820306], [133.991302490234, 34.44313430786129]]], [[[133.999298095703, 34.47566604614264], [133.991394042969, 34.476531982421946], [133.994003295898, 34.478267669677734], [133.999298095703, 34.47566604614264]]], [[[133.95640563964798, 34.47259902954098], [133.95019531249997, 34.473464965820284], [133.95289611816398, 34.4777336120605], [133.95640563964798, 34.47259902954098]]], [[[134.18510437011702, 34.46773147583013], [134.187805175781, 34.472667694091825], [134.189895629883, 34.470932006835945], [134.18510437011702, 34.46773147583013]]], [[[134.009201049805, 34.469398498535156], [134.000595092773, 34.47213363647458], [134.008407592773, 34.471332550048764], [134.009201049805, 34.469398498535156]]], [[[133.967102050781, 34.45506668090818], [133.95680236816398, 34.46113204956049], [133.96459960937497, 34.46173477172849], [133.967102050781, 34.45506668090818]]], [[[134.32310485839798, 34.44566726684572], [134.320297241211, 34.445732116699205], [134.321105957031, 34.44760131835942], [134.32310485839798, 34.44566726684572]]], [[[134.013900756836, 34.44033432006838], [134.003402709961, 34.439933776855476], [134.012908935547, 34.442333221435476], [134.013900756836, 34.44033432006838]]], [[[134.34899902343798, 34.43719863891596], [134.344100952148, 34.43986892700199], [134.345001220703, 34.44033432006838], [134.34899902343798, 34.43719863891596]]], [[[134.06390380859403, 34.421466827392614], [134.05490112304702, 34.42760086059568], [134.05990600585903, 34.43400192260741], [134.06390380859403, 34.421466827392614]]], [[[133.804901123047, 34.42713165283202], [133.80070495605497, 34.41720199584958], [133.79530334472696, 34.42533493041992], [133.804901123047, 34.42713165283202]]], [[[134.12669372558597, 34.41693496704101], [134.12390136718804, 34.41986465454098], [134.12759399414097, 34.41986465454098], [134.12669372558597, 34.41693496704101]]], [[[133.91940307617196, 34.418464660644524], [133.92469787597696, 34.418731689453104], [133.92320251464795, 34.416465759277344], [133.91940307617196, 34.418464660644524]]], [[[133.783004760742, 34.412864685058615], [133.77450561523398, 34.41386795043952], [133.78050231933597, 34.41500091552731], [133.783004760742, 34.412864685058615]]], [[[134.11090087890597, 34.40539932250976], [134.09829711914097, 34.40126800537106], [134.10430908203097, 34.41426849365234], [134.11090087890597, 34.40539932250976]]], [[[134.12179565429696, 34.41213226318364], [134.12019348144497, 34.41006469726561], [134.12010192871097, 34.412467956542976], [134.12179565429696, 34.41213226318364]]], [[[134.13710021972696, 34.40973281860346], [134.13589477539097, 34.41213226318364], [134.13740539550798, 34.410999298095675], [134.13710021972696, 34.40973281860346]]], [[[133.674194335938, 34.40986633300779], [133.66020202636702, 34.399333953857365], [133.651702880859, 34.4087982177734], [133.674194335938, 34.40986633300779]]], [[[134.053405761719, 34.3903999328613], [134.038497924805, 34.388599395752024], [134.05500793457003, 34.4079322814941], [134.053405761719, 34.3903999328613]]], [[[133.812591552734, 34.4079322814941], [133.80740356445298, 34.40433502197273], [133.80859375, 34.40840148925776], [133.812591552734, 34.4079322814941]]], [[[133.77929687499997, 34.40173339843754], [133.78280639648398, 34.40713500976564], [133.78930664062497, 34.404399871826215], [133.77929687499997, 34.40173339843754]]], [[[133.77310180664097, 34.37813186645508], [133.75219726562497, 34.39826583862297], [133.79460144042997, 34.388999938964844], [133.77310180664097, 34.37813186645508]]], [[[133.72999572753903, 34.37120056152338], [133.68519592285202, 34.36473464965816], [133.71159362793003, 34.400333404541], [133.72999572753903, 34.37120056152338]]], [[[134.13479614257798, 34.151332855224595], [134.12179565429696, 34.11866760253909], [134.050308227539, 34.11793518066412], [133.996795654297, 34.07379913330077], [133.93850708007804, 34.11526870727536], [133.832901000977, 34.09746551513672], [133.67900085449202, 34.01240158081046], [133.665802001953, 34.026268005371136], [133.639297485352, 34.025867462158224], [133.626693725586, 34.037532806396534], [133.61079406738298, 34.033199310302656], [133.59790039062497, 34.043601989746115], [133.633605957031, 34.07160186767577], [133.64790344238298, 34.19353485107416], [133.55709838867196, 34.26126861572271], [133.67160034179702, 34.24653244018547], [133.67350769043, 34.22180175781248], [133.828598022461, 34.322933197021506], [133.818603515625, 34.35293197631843], [133.855895996094, 34.357734680175795], [133.833999633789, 34.324798583984446], [133.88499450683602, 34.34033203124997], [133.89540100097702, 34.38306427001951], [134.07899475097693, 34.347599029541], [134.09109497070304, 34.38479995727538], [134.114791870117, 34.35913467407234], [134.12220764160196, 34.36059951782228], [134.13479614257798, 34.39973449707027], [134.165008544922, 34.3259353637695], [134.21009826660202, 34.369400024414105], [134.26580810546903, 34.33599853515627], [134.26200866699196, 34.28286743164063], [134.377395629883, 34.26160049438477], [134.43969726562497, 34.20786666870123], [134.41839599609403, 34.15753555297851], [134.34930419921898, 34.18533325195307], [134.13479614257798, 34.151332855224595]]], [[[134.173400878906, 34.39059829711912], [134.172698974609, 34.398132324218814], [134.175704956055, 34.39086532592769], [134.173400878906, 34.39059829711912]]], [[[133.92469787597696, 34.39333343505863], [133.92109680175804, 34.39279937744139], [133.92199707031304, 34.39646530151369], [133.92469787597696, 34.39333343505863]]], [[[133.820098876953, 34.395133972168], [133.81340026855497, 34.38639831542966], [133.813293457031, 34.3931999206543], [133.820098876953, 34.395133972168]]], [[[133.83110046386702, 34.393066406249964], [133.82829284668, 34.38966751098633], [133.827896118164, 34.394733428955085], [133.83110046386702, 34.393066406249964]]], [[[133.64860534667997, 34.38313293457026], [133.642395019531, 34.37680053710938], [133.643798828125, 34.379734039306626], [133.64860534667997, 34.38313293457026]]], [[[133.85449218750003, 34.371265411377045], [133.850296020508, 34.37266540527341], [133.851104736328, 34.373931884765625], [133.85449218750003, 34.371265411377045]]], [[[133.78649902343795, 34.35846710205077], [133.77839660644497, 34.36553573608398], [133.78509521484398, 34.36320114135737], [133.78649902343795, 34.35846710205077]]], [[[133.631195068359, 34.33900070190427], [133.61689758300798, 34.350200653076186], [133.618698120117, 34.354534149169886], [133.631195068359, 34.33900070190427]]], [[[133.645004272461, 34.33653259277342], [133.639205932617, 34.33426666259766], [133.638595581055, 34.33693313598633], [133.645004272461, 34.33653259277342]]], [[[133.67919921875, 34.31726455688484], [133.66960144043, 34.308399200439524], [133.66340637207, 34.32559967041017], [133.67919921875, 34.31726455688484]]], [[[133.62130737304696, 34.301067352294915], [133.621795654297, 34.30160140991207], [133.621795654297, 34.301265716552734], [133.62130737304696, 34.301067352294915]]], [[[133.621795654297, 34.25593185424802], [133.62300109863298, 34.28639984130861], [133.654998779297, 34.28086853027336], [133.654403686523, 34.27053451538093], [133.621795654297, 34.25593185424802]]], [[[133.67770385742202, 34.27346801757808], [133.671401977539, 34.268798828124964], [133.669403076172, 34.27013397216802], [133.67770385742202, 34.27346801757808]]], [[[133.62730407714798, 34.2029991149902], [133.62420654296898, 34.19766616821286], [133.621795654297, 34.20199966430656], [133.62730407714798, 34.2029991149902]]], [[[133.63330078125, 34.19226455688477], [133.63029479980497, 34.1930656433105], [133.63519287109398, 34.19340133666992], [133.63330078125, 34.19226455688477]]], [[[133.45550537109398, 34.152667999267564], [133.45159912109398, 34.15380096435553], [133.45339965820298, 34.155265808105476], [133.45550537109398, 34.152667999267564]]], [[[133.54150390625003, 34.13073348999022], [133.52569580078102, 34.13306427001947], [133.526000976563, 34.13653182983404], [133.54150390625003, 34.13073348999022]]]]}, "properties": {"pref_id": 37, "name_ja": "香川県", "pref_area_ha": 186622, "yearly": {}}}, {"type": "Feature", "geometry": {"type": "MultiPolygon", "coordinates": [[[[136.83380126953102, 35.35586547851556], [136.99299621582003, 35.424266815185504], [136.97799682617202, 35.404132843017614], [137.04739379882795, 35.365001678466804], [137.08169555664097, 35.29213333129883], [137.16520690918, 35.28253173828128], [137.18580627441403, 35.25320053100593], [137.307800292969, 35.291065216064524], [137.42970275878898, 35.222801208496094], [137.56730651855503, 35.289600372314496], [137.54589843750003, 35.25320053100593], [137.57850646972696, 35.198398590087905], [137.68220520019503, 35.23473358154298], [137.837997436523, 35.21246719360349], [137.802993774414, 35.18320083618162], [137.828491210938, 35.153732299804666], [137.79249572753898, 35.13439941406251], [137.80020141601597, 35.10533142089837], [137.71719360351602, 35.03499984741209], [137.70710754394503, 34.972267150878906], [137.639801025391, 34.89213180541989], [137.486801147461, 34.811401367187514], [137.483901977539, 34.673801422119084], [137.01750183105503, 34.57826614379879], [137.07400512695298, 34.662265777587926], [137.118499755859, 34.634799957275426], [137.26081848144497, 34.69575500488277], [137.28469848632798, 34.7308654785156], [137.284591674805, 34.67886734008793], [137.306900024414, 34.678401947021534], [137.308197021484, 34.72480010986329], [137.332702636719, 34.71886825561523], [137.341995239258, 34.720134735107436], [137.351501464844, 34.72740173339838], [137.32029724121102, 34.73260116577148], [137.330505371094, 34.78060150146477], [137.31120300293, 34.80366516113282], [137.29789733886702, 34.810466766357365], [137.21609497070304, 34.82293319702149], [137.17050170898403, 34.765201568603494], [137.16819763183602, 34.78760147094732], [137.02729797363304, 34.777332305908196], [136.950881958008, 34.82335662841802], [136.983596801758, 34.893268585205135], [136.982604980469, 34.95919799804687], [136.91430664062497, 34.77093505859383], [136.97200012207003, 34.695598602294915], [136.83979797363304, 34.763866424560526], [136.86630249023395, 34.83653259277341], [136.82107543945304, 34.883708953857365], [136.82829284668003, 34.96106719970699], [136.82020568847702, 34.9662017822266], [136.89630126953097, 35.084133148193445], [136.86720275878903, 35.092998504638665], [136.84579467773403, 35.034000396728544], [136.82809448242202, 35.0827331542969], [136.83839416503903, 35.03093338012697], [136.79670715332, 35.05146789550776], [136.79379272460903, 35.014934539794865], [136.770401000977, 35.02140045166017], [136.746795654297, 35.08240127563484], [136.67250061035202, 35.13473129272457], [136.67770385742202, 35.241001129150376], [136.770294189453, 35.36866760253911], [136.83380126953102, 35.35586547851556]]], [[[136.82167053222696, 35.008003234863345], [136.80044555664097, 35.00362014770514], [136.82167053222696, 35.017635345458956], [136.82167053222696, 35.008003234863345]]], [[[136.825729370117, 34.960510253906314], [136.81094360351597, 34.95486450195308], [136.818710327148, 34.96446609497072], [136.825729370117, 34.960510253906314]]], [[[136.808609008789, 34.83929824829099], [136.79864501953097, 34.87432098388671], [136.80012512207, 34.87722015380862], [136.82229614257804, 34.86241912841798], [136.808609008789, 34.83929824829099]]], [[[137.30549621582, 34.80640029907233], [137.300201416016, 34.80519866943361], [137.300201416016, 34.80860137939452], [137.30549621582, 34.80640029907233]]], [[[137.30839538574202, 34.77906799316408], [137.31539916992202, 34.796333312988295], [137.324401855469, 34.78693389892584], [137.30839538574202, 34.77906799316408]]], [[[137.23510742187497, 34.786998748779325], [137.22880554199196, 34.788265228271534], [137.23550415039097, 34.78839874267578], [137.23510742187497, 34.786998748779325]]], [[[137.097702026367, 34.76466751098634], [137.100494384766, 34.769134521484375], [137.103103637695, 34.76699829101559], [137.097702026367, 34.76466751098634]]], [[[137.319137573242, 34.74834442138672], [137.30793762206997, 34.7347831726074], [137.31427001953094, 34.74840164184567], [137.319137573242, 34.74834442138672]]], [[[137.05450439453097, 34.72646713256841], [137.04409790039094, 34.726398468017564], [137.03019714355503, 34.72753524780271], [137.05450439453097, 34.72646713256841]]], [[[137.34486389160196, 34.724475860595675], [137.338317871094, 34.72470474243156], [137.34860229492202, 34.72655487060551], [137.34486389160196, 34.724475860595675]]], [[[137.25207519531298, 34.71306991577149], [137.24798583984398, 34.71107101440431], [137.24639892578097, 34.71285247802733], [137.25207519531298, 34.71306991577149]]], [[[137.01219177246102, 34.70726776123049], [136.99620056152304, 34.7053337097168], [136.99909973144503, 34.707065582275405], [137.01219177246102, 34.70726776123049]]], [[[137.01010131835903, 34.67806625366212], [136.99850463867202, 34.670398712158175], [137.00759887695304, 34.68506622314448], [137.01010131835903, 34.67806625366212]]], [[[137.12699890136702, 34.64899826049798], [137.125396728516, 34.649868011474645], [137.12579345703102, 34.653400421142614], [137.12699890136702, 34.64899826049798]]], [[[137.09370422363298, 34.65326690673828], [137.092102050781, 34.65253448486331], [137.09179687499997, 34.65319824218753], [137.09370422363298, 34.65326690673828]]]]}, "properties": {"pref_id": 23, "name_ja": "愛知県", "pref_area_ha": 515036, "yearly": {}}}, {"type": "Feature", "geometry": {"type": "Polygon", "coordinates": [[[139.96139526367202, 37.153533935546896], [140.13780212402304, 37.10639953613281], [140.20460510253898, 37.02399826049804], [140.24920654296898, 37.02606582641598], [140.25549316406298, 36.76453399658197], [140.292602539063, 36.71266555786127], [140.220596313477, 36.685932159423835], [140.26029968261702, 36.517601013183594], [140.18530273437497, 36.39833450317377], [140.13040161132804, 36.414665222168026], [139.97329711914102, 36.37853240966803], [139.90960693359398, 36.3005981445313], [139.84870910644497, 36.311332702636726], [139.82170104980503, 36.23979949951172], [139.727401733398, 36.20159912109379], [139.66479492187497, 36.2071990966797], [139.62179565429693, 36.273735046386705], [139.46440124511696, 36.271533966064524], [139.36109924316398, 36.3838005065918], [139.43510437011702, 36.46419906616211], [139.421905517578, 36.50866699218753], [139.48339843749997, 36.58240127563481], [139.32789611816398, 36.63360214233401], [139.371795654297, 36.745735168457045], [139.353103637695, 36.7737350463867], [139.406402587891, 36.829601287841754], [139.34870910644497, 36.85273361206047], [139.35639953613298, 36.87806701660163], [139.45989990234403, 36.969734191894524], [139.82200622558594, 37.085468292236285], [139.81629943847693, 37.11820220947272], [139.86640930175795, 37.14739990234383], [139.96139526367202, 37.153533935546896]]]}, "properties": {"pref_id": 9, "name_ja": "栃木県", "pref_area_ha": 638414, "yearly": {}}}, {"type": "Feature", "geometry": {"type": "Polygon", "coordinates": [[[138.370300292969, 35.97146606445307], [138.44029235839798, 35.952266693115234], [138.47109985351597, 35.89673233032233], [138.59060668945304, 35.91959762573237], [138.61050415039102, 35.87419891357417], [138.67610168457, 35.86986541748047], [138.72880554199202, 35.909267425537124], [138.89289855957003, 35.83986663818363], [138.94400024414102, 35.85466766357418], [139.025604248047, 35.7193336486816], [139.12950134277295, 35.67419815063479], [139.12910461425804, 35.56373214721679], [138.873199462891, 35.38146591186521], [138.680404663086, 35.357666015625014], [138.66349792480497, 35.39826583862304], [138.60960388183597, 35.393199920654276], [138.58189392089804, 35.44573211669918], [138.55889892578102, 35.43413162231454], [138.51249694824202, 35.314064025878906], [138.532897949219, 35.201534271240234], [138.491592407227, 35.16846466064447], [138.42919921874994, 35.18186569213874], [138.36540222168, 35.311664581298814], [138.28559875488295, 35.30459976196287], [138.24879455566403, 35.33153152465822], [138.23280334472702, 35.37620162963872], [138.26800537109403, 35.515666961669915], [138.18029785156298, 35.712799072265625], [138.23559570312503, 35.75753402709962], [138.185501098633, 35.79486846923833], [138.23789978027304, 35.88219833374017], [138.283493041992, 35.85946655273437], [138.370300292969, 35.97146606445307]]]}, "properties": {"pref_id": 19, "name_ja": "山梨県", "pref_area_ha": 445527, "yearly": {}}}, {"type": "Feature", "geometry": {"type": "Polygon", "coordinates": [[[136.14999389648403, 35.697799682617166], [136.280395507813, 35.66113281250002], [136.288696289063, 35.62033462524409], [136.32330322265602, 35.6162643432617], [136.31779479980503, 35.54693222045896], [136.37179565429696, 35.55973434448242], [136.400192260742, 35.529865264892564], [136.387191772461, 35.487865447998], [136.444091796875, 35.38946533203131], [136.41340637207, 35.371265411377024], [136.37809753417997, 35.2426681518555], [136.453796386719, 35.15200042724606], [136.41430664062497, 34.97959899902342], [136.36560058593804, 34.904933929443445], [136.250305175781, 34.85779953002927], [136.11059570312503, 34.901866912841776], [136.085205078125, 34.87773513793952], [136.12660217285202, 34.86180114746091], [136.090301513672, 34.81393432617194], [136.02630615234403, 34.790733337402294], [136.00500488281304, 34.84273529052732], [135.94569396972702, 34.85173416137696], [135.94050598144503, 34.89319992065429], [135.897994995117, 34.871200561523366], [135.86639404296898, 34.892265319824226], [135.87820434570298, 34.94746780395507], [135.81500244140597, 35.04613494873052], [135.860397338867, 35.28300094604494], [135.83129882812497, 35.27613449096682], [135.763702392578, 35.344532012939496], [135.81509399414102, 35.413131713867166], [135.890396118164, 35.40380096435546], [135.939804077148, 35.52040100097661], [136.00590515136696, 35.49160003662114], [136.02609252929696, 35.529598236083984], [136.10510253906298, 35.528800964355526], [136.113296508789, 35.58286666870122], [136.16850280761696, 35.56546783447267], [136.14999389648403, 35.697799682617166]]]}, "properties": {"pref_id": 25, "name_ja": "滋賀県", "pref_area_ha": 400365, "yearly": {}}}, {"type": "Feature", "geometry": {"type": "Polygon", "coordinates": [[[138.64430236816398, 36.41153335571287], [138.489807128906, 36.40159988403317], [138.40089416503903, 36.43473434448243], [138.42739868164102, 36.596134185790966], [138.525207519531, 36.65146636962888], [138.514007568359, 36.69033432006838], [138.72630310058602, 36.763801574706996], [138.78939819335898, 36.7449989318848], [138.82609558105497, 36.77166748046884], [138.82150268554696, 36.81706619262696], [138.92840576171903, 36.83259963989258], [138.92300415039102, 36.88346862792972], [138.97900390624997, 36.89106750488282], [138.96649169921898, 36.97886657714841], [139.04699707031298, 36.987468719482415], [139.09700012207003, 37.05879974365233], [139.24150085449202, 36.93019866943363], [139.393402099609, 36.91093444824222], [139.34870910644497, 36.85273361206047], [139.406402587891, 36.829601287841754], [139.353103637695, 36.7737350463867], [139.371795654297, 36.745735168457045], [139.32789611816398, 36.63360214233401], [139.48339843749997, 36.58240127563481], [139.421905517578, 36.50866699218753], [139.43510437011702, 36.46419906616211], [139.36109924316398, 36.3838005065918], [139.46440124511696, 36.271533966064524], [139.62179565429693, 36.273735046386705], [139.66929626464798, 36.212467193603466], [139.62489318847702, 36.18659973144533], [139.587905883789, 36.210399627685526], [139.45719909668003, 36.19060134887697], [139.35949707031298, 36.25320053100591], [139.32350158691398, 36.229732513427685], [139.12930297851602, 36.283401489257834], [139.04280090332, 36.1296005249023], [138.95840454101602, 36.124267578124964], [138.82850646972696, 36.03733444213867], [138.755004882813, 36.03459930419916], [138.71269226074202, 35.98526763916016], [138.631393432617, 36.02833175659176], [138.64520263671898, 36.11980056762702], [138.57730102539102, 36.16813278198238], [138.63699340820298, 36.174465179443445], [138.60040283203097, 36.278465270996136], [138.65350341796898, 36.303066253662145], [138.64430236816398, 36.41153335571287]]]}, "properties": {"pref_id": 10, "name_ja": "群馬県", "pref_area_ha": 634050, "yearly": {}}}, {"type": "Feature", "geometry": {"type": "MultiPolygon", "coordinates": [[[[141.483901977539, 38.97846603393546], [141.51029968261702, 39.002933502197315], [141.63220214843798, 38.9710006713867], [141.67460632324202, 38.866733551025426], [141.6376953125, 38.90186691284178], [141.60549926757798, 38.88026428222659], [141.58709716796898, 38.90940093994139], [141.57539367675795, 38.905864715576236], [141.60339355468798, 38.827800750732436], [141.51649475097702, 38.771800994872955], [141.56419372558597, 38.740531921386726], [141.56089782714798, 38.69046783447267], [141.52560424804702, 38.716732025146534], [141.49429321289102, 38.67413330078133], [141.444793701172, 38.673801422119084], [141.44470214843798, 38.64319992065434], [141.52940368652304, 38.63740158081052], [141.459991455078, 38.576332092285185], [141.49679565429702, 38.53260040283201], [141.53219604492193, 38.549133300781264], [141.54269409179696, 38.5032005310059], [141.470504760742, 38.52153396606452], [141.49679565429702, 38.49606704711911], [141.476593017578, 38.46406555175783], [141.51260375976602, 38.45079803466797], [141.447601318359, 38.441532135009844], [141.472396850586, 38.39413452148436], [141.53880310058602, 38.40000152587894], [141.48249816894503, 38.37686538696287], [141.53379821777304, 38.34126663208012], [141.52420043945304, 38.2719345092773], [141.449600219727, 38.31573104858396], [141.462707519531, 38.3514671325684], [141.41799926757798, 38.34733200073243], [141.458801269531, 38.37426757812496], [141.431198120117, 38.3994674682617], [141.37409973144497, 38.38366699218751], [141.35890197753903, 38.41379928588868], [141.26660156249997, 38.419868469238345], [141.160598754883, 38.36533355712889], [141.154800415039, 38.348133087158246], [141.17790222168003, 38.32040023803708], [141.138702392578, 38.32213211059569], [141.13330078125, 38.37746810913087], [141.06280517578097, 38.36973190307617], [141.02510070800804, 38.32013320922851], [141.089904785156, 38.30139923095698], [140.99909973144503, 38.273265838623], [141.04679870605494, 38.265068054199176], [140.98629760742202, 38.217666625976605], [140.92810058593798, 38.08653259277339], [140.931198120117, 37.896331787109375], [140.85670471191403, 37.89126586914062], [140.85739135742196, 37.80406570434566], [140.77510070800798, 37.806465148925845], [140.792907714844, 37.773399353027344], [140.69450378418003, 37.80346679687502], [140.69039916992196, 37.888332366943374], [140.66130065918003, 37.900665283203075], [140.567199707031, 37.92279815673833], [140.48820495605503, 37.899932861328104], [140.47500610351602, 37.946998596191435], [140.407806396484, 37.9734649658203], [140.35130310058597, 37.950466156005916], [140.27520751953102, 37.982131958007784], [140.277206420898, 38.056465148925795], [140.42109680175798, 38.08653259277339], [140.47950744628903, 38.18066787719731], [140.47140502929702, 38.26966857910163], [140.620101928711, 38.45553207397458], [140.56399536132798, 38.510868072509844], [140.578903198242, 38.568531036377], [140.53799438476597, 38.63413238525394], [140.600692749023, 38.6398658752441], [140.607406616211, 38.72066497802732], [140.64630126953102, 38.76879882812504], [140.60530090332, 38.783332824707024], [140.54730224609398, 38.88953399658199], [140.63850402832003, 38.883331298828075], [140.746795654297, 38.95686721801763], [140.82620239257804, 38.963531494140575], [140.98649597168003, 38.87553405761716], [141.140106201172, 38.877868652343764], [141.10589599609398, 38.82320022583007], [141.23480224609395, 38.74840164184567], [141.31039428710903, 38.82266616821292], [141.41070556640597, 38.76813125610347], [141.438293457031, 38.783332824707024], [141.451400756836, 38.87666702270513], [141.49159240722702, 38.915931701660185], [141.483901977539, 38.97846603393546]]], [[[141.637893676758, 38.840999603271534], [141.60279846191398, 38.8726654052734], [141.623992919922, 38.885734558105526], [141.637893676758, 38.840999603271534]]], [[[141.64270019531298, 38.84439849853518], [141.641403198242, 38.843265533447294], [141.641098022461, 38.845401763915994], [141.64270019531298, 38.84439849853518]]], [[[141.51170349121102, 38.549800872802656], [141.513793945313, 38.55593109130863], [141.51699829101602, 38.55526733398442], [141.51170349121102, 38.549800872802656]]], [[[141.5, 38.478534698486314], [141.499404907227, 38.478534698486314], [141.499404907227, 38.479068756103466], [141.5, 38.478534698486314]]], [[[141.531204223633, 38.45420074462888], [141.51849365234403, 38.44653320312503], [141.515991210938, 38.4651985168457], [141.531204223633, 38.45420074462888]]], [[[141.59280395507798, 38.42273330688483], [141.59260559081997, 38.42419815063477], [141.59570312499997, 38.4236679077148], [141.59280395507798, 38.42273330688483]]], [[[141.599594116211, 38.39853286743164], [141.59100341796898, 38.40093231201173], [141.59629821777298, 38.4022674560547], [141.599594116211, 38.39853286743164]]], [[[141.604797363281, 38.38740158081048], [141.601791381836, 38.38926696777342], [141.60589599609398, 38.39193344116209], [141.604797363281, 38.38740158081048]]], [[[141.426803588867, 38.38053131103518], [141.42149353027298, 38.37726593017578], [141.418502807617, 38.37706756591796], [141.426803588867, 38.38053131103518]]], [[[141.07319641113298, 38.36640167236329], [141.06999206542997, 38.36826705932623], [141.07189941406304, 38.36859893798829], [141.07319641113298, 38.36640167236329]]], [[[141.08779907226597, 38.365867614746136], [141.083801269531, 38.364398956298835], [141.08000183105497, 38.36679840087893], [141.08779907226597, 38.365867614746136]]], [[[141.07600402831997, 38.36320114135738], [141.07629394531298, 38.36533355712889], [141.07870483398398, 38.3633995056152], [141.07600402831997, 38.36320114135738]]], [[[141.16040039062503, 38.35306549072268], [141.16329956054702, 38.35533142089844], [141.16549682617202, 38.354267120361314], [141.16040039062503, 38.35306549072268]]], [[[141.125900268555, 38.352134704589794], [141.121795654297, 38.352867126464766], [141.121795654297, 38.354267120361314], [141.125900268555, 38.352134704589794]]], [[[141.116500854492, 38.34633255004879], [141.11279296875, 38.34893417358398], [141.11479187011702, 38.3527984619141], [141.116500854492, 38.34633255004879]]], [[[141.121795654297, 38.3486671447754], [141.120193481445, 38.348731994628885], [141.119201660156, 38.352268218994126], [141.121795654297, 38.3486671447754]]], [[[141.131698608398, 38.33606719970703], [141.116592407227, 38.33653259277342], [141.12969970703102, 38.34753417968752], [141.131698608398, 38.33606719970703]]], [[[141.110198974609, 38.33133316040042], [141.10400390625, 38.342864990234396], [141.114593505859, 38.33926773071294], [141.121002197266, 38.34513473510743], [141.110198974609, 38.33133316040042]]], [[[141.113998413086, 38.34113311767579], [141.112991333008, 38.343132019042976], [141.116790771484, 38.34306716918949], [141.113998413086, 38.34113311767579]]], [[[141.05499267578097, 38.33653259277342], [141.05270385742196, 38.33653259277342], [141.05470275878898, 38.33806610107421], [141.05499267578097, 38.33653259277342]]], [[[141.05200195312497, 38.33653259277342], [141.05139160156304, 38.33653259277342], [141.05139160156304, 38.33779907226564], [141.05200195312497, 38.33653259277342]]], [[[141.103500366211, 38.33300018310554], [141.08880615234398, 38.331130981445334], [141.085998535156, 38.33606719970703], [141.103500366211, 38.33300018310554]]], [[[141.07220458984398, 38.32606506347657], [141.06689453124997, 38.326934814453054], [141.07560729980497, 38.32646560668948], [141.07220458984398, 38.32606506347657]]], [[[141.15800476074202, 38.32073211669923], [141.15679931640602, 38.31813430786132], [141.155395507813, 38.32099914550781], [141.15800476074202, 38.32073211669923]]], [[[141.57440185546903, 38.26926803588872], [141.54800415039102, 38.30273437500004], [141.56730651855503, 38.31393432617187], [141.58990478515597, 38.30239868164062], [141.57440185546903, 38.26926803588872]]], [[[141.429992675781, 38.29326629638673], [141.40939331054696, 38.30540084838871], [141.41629028320298, 38.312801361083984], [141.429992675781, 38.29326629638673]]], [[[141.50199890136702, 38.246398925781314], [141.457901000977, 38.268268585205085], [141.460693359375, 38.283668518066364], [141.482192993164, 38.27713394165039], [141.50199890136702, 38.246398925781314]]]]}, "properties": {"pref_id": 4, "name_ja": "宮城県", "pref_area_ha": 725248, "yearly": {}}}]}